GLOBALSTAR M068         
1 32266U 07048D   25354.53578544 -.00000094  00000+0  53727-4 0  9999
2 32266  51.9885  94.1963 0001570 157.8993 215.9387 12.62835580841103
GLOBALSTAR M079         
1 37188U 10054A   25354.09052307 -.00000086  00000+0  10108-3 0  9999
2 37188  52.0069 293.8690 0000713  31.2994 342.4928 12.62261594699933
GLOBALSTAR M074         
1 37189U 10054B   25354.22444439 -.00000090  00000+0  79235-4 0  9998
2 37189  52.0029 292.7539 0000791  57.1922  85.0664 12.62264171700556
GLOBALSTAR M076         
1 37190U 10054C   25354.57418708 -.00000089  00000+0  82867-4 0  9991
2 37190  52.0042 291.8782 0000889  47.4563 123.8169 12.62268249700319
GLOBALSTAR M077         
1 37191U 10054D   25354.27784484 -.00000089  00000+0 -19921-3 0  9997
2 37191  51.9979 273.7438 0001260  35.6615 135.4772 11.68176465700238
GLOBALSTAR M075         
1 37192U 10054E   25351.73634080 -.00000091  00000+0  72174-4 0  9994
2 37192  51.9972 342.6695 0000324  70.0279 101.0008 12.62270606699024
GLOBALSTAR M073         
1 37193U 10054F   25354.01818461 -.00000062  00000+0  23178-3 0  9993
2 37193  52.0056 249.6872 0000980  53.0805  49.8097 12.62268138701306
GLOBALSTAR M083         
1 37739U 11033A   25354.28351497 -.00000080  00000+0  13049-3 0  9993
2 37739  51.9834 197.3518 0000999  72.5959  98.5468 12.62265907670350
GLOBALSTAR M088         
1 37740U 11033B   25354.61848302 -.00000121  00000+0 -93919-4 0  9990
2 37740  52.0213 102.3248 0000877 121.2435 252.1210 12.62270980665946
GLOBALSTAR M091         
1 37741U 11033C   25354.58041255 -.00000102  00000+0  10323-4 0  9995
2 37741  52.0008  65.6716 0000523 138.1750   1.3097 12.62268176666723
GLOBALSTAR M085         
1 37742U 11033D   25354.40124838 -.00000098  00000+0  30954-4 0  9992
2 37742  52.0145  17.3526 0000091 156.4435 309.1836 12.62267359667219
GLOBALSTAR M081         
1 37743U 11033E   25351.59018587 -.00000087  00000+0  92331-4 0  9998
2 37743  51.9980  28.5496 0000222  94.7932  71.3857 12.62270971667009
GLOBALSTAR M089         
1 37744U 11033F   25353.97595163 -.00000092  00000+0  64668-4 0  9991
2 37744  51.9953 335.4793 0000635  70.7300 322.4108 12.62262504668150
GLOBALSTAR M084         
1 38040U 11080A   25354.62329767 -.00000087  00000+0  92057-4 0  9998
2 38040  51.9982 200.8960 0001366  81.6687 313.5687 12.62266760646218
GLOBALSTAR M080         
1 38041U 11080B   25354.59087416 -.00000076  00000+0  15235-3 0  9997
2 38041  52.0032 202.6511 0000720 101.5817 276.1704 12.62265097646338
GLOBALSTAR M082         
1 38042U 11080C   25354.44811178 -.00000116  00000+0 -67280-4 0  9996
2 38042  52.0051 158.5665 0000818 110.7588 267.6086 12.62266378647022
GLOBALSTAR M092         
1 38043U 11080D   25354.45525516 -.00000071  00000+0  18020-3 0  9992
2 38043  52.0077 248.9336 0000886  67.9371 102.5403 12.62268529645475
GLOBALSTAR M090         
1 38044U 11080E   25354.47859966 -.00000123  00000+0 -10849-3 0  9994
2 38044  52.0097 152.3723 0000912  93.9830 301.8858 12.62265518647144
GLOBALSTAR M086         
1 38045U 11080F   25354.59073937 -.00000112  00000+0 -46370-4 0  9991
2 38045  51.9877 152.2518 0001473  50.5154  25.3030 12.62281363647103
GLOBALSTAR M097         
1 39072U 13005A   25354.60227096 -.00000116  00000+0 -65994-4 0  9997
2 39072  52.0061  66.9630 0000453 110.3083 249.7832 12.62267641594353
GLOBALSTAR M093         
1 39073U 13005B   25354.49698246 -.00000098  00000+0  29673-4 0  9996
2 39073  52.0117  60.5635 0000210 100.5516 259.5375 12.62271095594296
GLOBALSTAR M094         
1 39074U 13005C   25354.25930811 -.00000108  00000+0 -26302-4 0  9997
2 39074  51.9980 335.5827 0000362  20.0927 339.9954 12.62265378595879
GLOBALSTAR M096         
1 39075U 13005D   25354.50989801 -.00000094  00000+0  53694-4 0  9996
2 39075  52.0090  23.4780 0000066 114.3961 245.6913 12.62269456594824
GLOBALSTAR M078         
1 39076U 13005E   25354.48388962 -.00000118  00000+0 -81536-4 0  9999
2 39076  51.9871 107.8157 0000814 181.4163 178.6701 12.62272478593440
GLOBALSTAR M095         
1 39077U 13005F   25354.58934386 -.00000121  00000+0 -96017-4 0  9992
2 39077  52.0075 104.8445 0000469 138.0263 222.0640 12.62267210593311
GLOBALSTAR M087         
1 52888U 22064A   25353.88974595 -.00000070  00000+0  19111-3 0  9991
2 52888  51.9990 248.3163 0000755  53.0105 307.0831 12.62261600168490
